TDRS 3                  
1 19548U 88091B   19179.36925444 -.00000297  00000-0  00000+0 0  9995
2 19548  14.3330   0.6668 0033311 322.6947  36.8739  1.00269486 99845
FLTSATCOM 8 (USA 46)    
1 20253U 89077A   19179.54402462 -.00000077  00000-0  00000+0 0  9991
2 20253  13.0597   8.3758 0002331  72.3793 103.4272  1.00273345235082
SKYNET 4C               
1 20776U 90079A   19178.73361194  .00000128  00000-0  00000+0 0  9997
2 20776  13.9840   9.0346 0002778 100.1433 103.9435  1.00276938105408
TDRS 5                  
1 21639U 91054B   19179.26861900  .00000086  00000-0  00000+0 0  9992
2 21639  14.3944  13.9436 0024288   1.7506 189.3522  1.00270758102189
TDRS 6                  
1 22314U 93003B   19179.12156906 -.00000292  00000-0  00000+0 0  9997
2 22314  14.0557  17.0134 0003065  27.3765 229.4682  1.00270211 96840
UFO 2 (USA 95)          
1 22787U 93056A   19179.22419374  .00000131  00000-0  00000+0 0  9992
2 22787  11.1637  17.6686 0005799  92.0056 275.7852  1.00273091 93138
USA 99 (MILSTAR-1 1)    
1 22988U 94009A   19178.49302809 -.00000263  00000-0  00000+0 0  9993
2 22988  13.5449  55.2176 0002531  40.1564 318.6377  1.00272714  6111
ASTRA 1D                
1 23331U 94070A   19179.06042863 -.00000263  00000-0  00000+0 0  9999
2 23331   8.6202  44.3506 0003616  47.6357 132.6217  1.00270388 90631
UFO 4 (USA 108)         
1 23467U 95003A   19179.38799385 -.00000019  00000-0  00000+0 0  9998
2 23467   9.9019  22.8135 0004554  66.1804 139.0525  1.00270957 89436
AMSC 1                  
1 23553U 95019A   19179.12555764 -.00000094  00000-0  00000+0 0  9997
2 23553  10.9127  33.8145 0009663  36.2614 144.5574  1.00272622 88637
TDRS 7                  
1 23613U 95035B   19178.58687351 -.00000199  00000-0  00000+0 0  9995
2 23613  14.2425   7.7152 0031685  26.0676 177.7081  1.00273337 87616
USA 113                 
1 23628U 95038A   19178.59649670 -.00000334  00000-0  00000+0 0  9998
2 23628  11.1035  32.7099 0000773 350.7943 210.4406  1.00270070  6079
USA 115 (MILSTAR-1 2)   
1 23712U 95060A   19179.44217538 -.00000198  00000-0  00000+0 0  9994
2 23712  13.0184  22.9354 0002191  52.4181 270.0467  1.00275280  6112
INMARSAT 3-F1           
1 23839U 96020A   19179.15966689  .00000012  00000-0  00000+0 0  9991
2 23839   5.3869  64.0865 0005923  31.6656 302.1724  1.00271072 85083
ASTRA 1F                
1 23842U 96021A   19179.08380786  .00000149  00000-0  00000+0 0  9997
2 23842   0.0813 300.9764 0004788 161.8179 247.5672  1.00269707 84807
MSAT M1                 
1 23846U 96022A   19179.12538315 -.00000082  00000-0  00000+0 0  9997
2 23846   8.8027  43.7487 0007465  40.6825 129.1263  1.00272068 84901
INMARSAT 3-F2           
1 24307U 96053A   19179.50050490  .00000115  00000-0  00000+0 0  9995
2 24307   4.1511  73.9467 0007024   7.6280 214.2460  0.99997050 83493
AMC-1 (GE-1)            
1 24315U 96054A   19178.54643367  .00000073  00000-0  00000+0 0  9992
2 24315   3.1459  81.0464 0003229   6.4188 253.7356  1.00274622 83483
INMARSAT 3-F3           
1 24674U 96070A   19179.47611295  .00000042  00000-0  00000+0 0  9992
2 24674   4.8896  68.1524 0005360  26.2352 171.3800  1.00273879 82445
AMC-2 (GE-2)            
1 24713U 97002A   19179.36577326 -.00000207  00000-0  00000+0 0  9990
2 24713   5.7027  62.2214 0005702  37.5644 223.1992  1.00270738 32797
INTELSAT 26 (IS-26)     
1 24732U 97007A   19179.15512809  .00000022  00000-0  00000+0 0  9992
2 24732   8.5412  45.1263 0004706  19.3943 329.4688  1.00272293 81743
USA 130 (DSP 18)        
1 24737U 97008A   19179.29186491  .00000029  00000-0  00000+0 0  9994
2 24737  13.3771  22.8672 0000811 234.3481 131.5784  1.00271405  6082
GALAXY 25 (G-25)        
1 24812U 97026A   19178.86034358 -.00000272  00000-0  00000+0 0  9995
2 24812   1.1011  93.2953 0004934 356.6422  76.7003  1.00625897 80832
INTELSAT 5 (IS-5)       
1 24916U 97046A   19179.52359344  .00000098  00000-0  00000+0 0  9996
2 24916   4.9976  67.4661 0004463  13.2693 247.0639  1.00272416 80091
AMC-3 (GE-3)            
1 24936U 97050A   19178.84526751 -.00000251  00000-0  00000-0 0  9998
2 24936   1.9890  88.3353 0002895  22.3118  37.2920  1.00271083 26906
NSS-5                   
1 24957U 97053A   19179.22864278  .00000112  00000-0  00000+0 0  9990
2 24957   5.2671  65.6519 0004184  35.5751 307.6079  1.00273030 79706
USA 134                 
1 25019U 97065A   19179.13647906 -.00000058  00000-0  00000+0 0  9990
2 25019   9.8051  38.4579 0004283 301.0867 233.7924  1.00273299  6076
ASTRA 1G                
1 25071U 97076A   19178.84800035  .00000074  00000-0  00000-0 0  9999
2 25071   3.8554  75.1874 0003304  19.0697 183.8423  1.00271248 79028
INMARSAT 3-F5           
1 25153U 98006B   19179.49496118 -.00000281  00000-0  00000+0 0  9999
2 25153   4.0707  71.8997 0004800  26.2168 302.3702  1.00269877 78365
UFO 8 (USA 138)         
1 25258U 98016A   19179.39635907 -.00000019  00000-0  00000+0 0  9995
2 25258   8.3049  34.2576 0003280  30.9729 165.4222  1.00267319 78048
THOR III                
1 25358U 98035A   19164.93209017 -.00000058  00000-0  00000-0 0  9994
2 25358   6.6491  55.1618 0002682  24.6256 153.3934  1.00272413 77170
INTELSAT 805 (IS-805)   
1 25371U 98037A   19179.46887163 -.00000021  00000-0  00000+0 0  9998
2 25371   1.6346  90.5269 0003183  12.2560 151.3665  1.00272166 77031
ASTRA 2A                
1 25462U 98050A   19179.20188307 -.00000295  00000-0  00000+0 0  9993
2 25462   0.7986  97.3619 0002537 356.6429 354.7081  1.00271888 76217
JCSAT-4A                
1 25630U 99006A   19178.88949613 -.00000196  00000-0  00000+0 0  9990
2 25630   3.8359  76.1631 0005402   1.0034 308.7502  1.00272440 74465
SKYNET 4E               
1 25639U 99009B   19179.29012021 -.00000028  00000-0  00000+0 0  9996
2 25639  10.6726  23.3000 0002925  64.5191 291.5019  1.00274513 74484
ASIASAT 3S              
1 25657U 99013A   19178.88879824 -.00000229  00000-0  00000-0 0  9991
2 25657   4.0345  74.5524 0003720   9.0099 298.2646  1.00271414 74287
NIMIQ 1                 
1 25740U 99027A   19179.56168021 -.00000189  00000-0  00000+0 0  9999
2 25740   0.2701  96.6394 0005599  17.9503 277.4310  1.00273142 73688
ASTRA 1H                
1 25785U 99033A   19178.35611708 -.00000271  00000-0  00000+0 0  9998
2 25785   5.2486  65.7935 0003075  21.4666 248.9984  1.00269312 73243
ABS-7                   
1 25894U 99046A   19179.02627115 -.00000353  00000-0  00000+0 0  9998
2 25894   0.1464  97.7275 0002166   6.4321 297.2111  1.00276591 71612
ABS-6                   
1 25924U 99053A   19179.17850985 -.00000110  00000-0  00000+0 0  9990
2 25924   0.0163 354.7207 0003042 116.8485  27.6739  1.00271458 72342
TELSTAR 12 (ORION 2)    
1 25949U 99059A   19179.13197400 -.00000055  00000-0  00000+0 0  9993
2 25949   2.5039  86.6613 0002827  16.1273 111.4566  1.00272134 71999
AMC-4 (GE-4)            
1 25954U 99060A   19179.52900368  .00000097  00000-0  00000+0 0  9994
2 25954   0.0742 283.7146 0002434 180.2505 227.9124  1.00273376 71953
UFO 10 (USA 146)        
1 25967U 99063A   19179.35762215 -.00000178  00000-0  00000+0 0  9990
2 25967   7.4723  36.6958 0009146  35.3884 310.2501  1.00274970 71811
GALAXY 11 (G-11)        
1 26038U 99071A   19179.49155898 -.00000227  00000-0  00000+0 0  9992
2 26038   0.3917 104.2594 0002361  30.9660 247.2456  0.99983798 71552
USA 148                 
1 26052U 00001A   19179.47744351  .00000047  00000-0  00000+0 0  9998
2 26052   7.8734  48.6850 0002445  17.9738 201.7743  1.00271442  6097
ASIASTAR                
1 26107U 00016A   19179.45482757 -.00000326  00000-0  00000+0 0  9993
2 26107   3.2348  79.1711 0004387  16.3438  89.4829  1.00274288 70628
USA 149 (DSP 20)        
1 26356U 00024A   19178.75069682  .00000102  00000-0  00000+0 0  9999
2 26356  11.2542  29.0477 0001448  27.7701 323.9458  1.00259044  6060
EUTELSAT 80A            
1 26369U 00028A   19178.86917015  .00000130  00000-0  00000-0 0  9993
2 26369   2.5952  83.2152 0004047  17.1541 176.2783  1.00272980 69903
TDRS 8                  
1 26388U 00034A   19179.16455209 -.00000228  00000-0  00000+0 0  9995
2 26388   8.6800  50.0586 0012680 313.2345  61.2407  1.00273229 69644
INTELSAT 9 (IS-9)       
1 26451U 00043A   19178.80099096 -.00000002  00000-0  00000-0 0  9995
2 26451   4.9831  67.6666 0002901  26.8986 175.5371  1.00272021 18613
BRASILSAT B4            
1 26469U 00046A   19178.72896403 -.00000163  00000-0  00000+0 0  9992
2 26469   3.2055  80.8247 0003859   5.8629 359.2716  1.00273230 69105
ASTRA 2B                
1 26494U 00054A   19178.86349981  .00000125  00000-0  00000-0 0  9996
2 26494   3.7506  75.8291 0004918  22.5694 147.5318  1.00274898 21359
AMC-7 (GE-7)            
1 26495U 00054B   19178.75118668  .00000097  00000-0  00000+0 0  9998
2 26495   0.4957  95.4314 0003179   5.5061 310.0323  1.00271966 68723
NSS-11 (AAP-1)          
1 26554U 00059A   19178.89473029  .00000034  00000-0  00000-0 0  9991
2 26554   0.0085   0.0345 0002686  74.8512 338.9073  1.00271935 15768
USA 153                 
1 26575U 00065A   19179.54730719 -.00000318  00000-0  00000+0 0  9991
2 26575   7.3228  51.8646 0000784 356.9954 198.9218  1.00268508  6081
AMC-6 (GE-6)            
1 26580U 00067A   19179.13018112 -.00000206  00000-0  00000+0 0  9996
2 26580   0.0216  57.1999 0002589  54.6025 128.0153  1.00272775 68452
INTELSAT 12 (IS-12)     
1 26590U 00068A   19178.84527903  .00000021  00000-0  00000+0 0  9992
2 26590   2.1013  88.0391 0005647 354.3856 201.7558  1.00271889 68262
INTELSAT 1R (IS-1R)     
1 26608U 00072A   19179.10631473 -.00000129  00000-0  00000+0 0  9995
2 26608   1.9086  89.1168 0000361 326.7877  55.3825  1.00271422 68125
ANIK F1                 
1 26624U 00076A   19179.50819609 -.00000064  00000-0  00000+0 0  9998
2 26624   0.0153  58.2848 0002625  63.1400 230.5285  1.00272329 68202
